$$SOE
2461295.500000000, A.D. 2026-Sep-12 00:00:00.0000, 1.508013476649053E+08, 2.460379786306719E+08, 6.742524947765793E+07,
2461302.500000000, A.D. 2026-Sep-19 00:00:00.0000, 1.394063591433943E+08, 2.499294096197105E+08, 6.168482529114406E+07,
2461309.500000000, A.D. 2026-Sep-26 00:00:00.0000, 1.277417494583220E+08, 2.533372273158544E+08, 5.582511620716542E+07,
2461316.500000000, A.D. 2026-Oct-03 00:00:00.0000, 1.158207734037928E+08, 2.562363562595677E+08, 4.985339153419393E+07,
2461323.500000000, A.D. 2026-Oct-10 00:00:00.0000, 1.036585215057717E+08, 2.586013967729824E+08, 4.377783645770901E+07,
2461330.500000000, A.D. 2026-Oct-17 00:00:00.0000, 9.127206784603989E+07, 2.604067621076395E+08, 3.760762114745645E+07,
2461337.500000000, A.D. 2026-Oct-24 00:00:00.0000, 7.868061795352949E+07, 2.616268445413307E+08, 3.135296906467621E+07,
2461344.500000000, A.D. 2026-Oct-31 00:00:00.0000, 6.590565345232142E+07, 2.622362133969133E+08, 2.502522268765593E+07,
2461351.500000000, A.D. 2026-Nov-07 00:00:00.0000, 5.297106953616887E+07, 2.622098478591522E+08, 1.863690444852503E+07,
2461358.500000000, A.D. 2026-Nov-14 00:00:00.0000, 3.990330026682321E+07, 2.615234078332032E+08, 1.220177030497658E+07,
2461365.500000000, A.D. 2026-Nov-21 00:00:00.0000, 2.673142371605857E+07, 2.601535451587734E+08, 5.734853067274660E+06,
2461372.500000000, A.D. 2026-Nov-28 00:00:00.0000, 1.348723880996460E+07, 2.580782527119993E+08, -7.475082395114303E+05,
2461379.500000000, A.D. 2026-Dec-05 00:00:00.0000, 2.053094288489406E+05, 2.552772498531893E+08, -7.227657335518420E+06,
2461386.500000000, A.D. 2026-Dec-12 00:00:00.0000, -1.307703286117755E+07, 2.517324046146143E+08, -1.368663201206340E+07,
2461393.500000000, A.D. 2026-Dec-19 00:00:00.0000, -2.631973860856408E+07, 2.474281876557688E+08, -2.010420207687925E+07,
2461400.500000000, A.D. 2026-Dec-26 00:00:00.0000, -3.948015228086115E+07, 2.423521495951852E+08, -2.645893833885050E+07,
2461407.500000000, A.D. 2027-Jan-02 00:00:00.0000, -5.251319453695713E+07, 2.364954111541091E+08, -3.272831671332227E+07,
2461414.500000000, A.D. 2027-Jan-09 00:00:00.0000, -6.537162229010870E+07, 2.298531526658097E+08, -3.888886080123889E+07,
2461421.500000000, A.D. 2027-Jan-16 00:00:00.0000, -7.800637191560990E+07, 2.224250864508949E+08, -4.491632513761832E+07,
2461428.500000000, A.D. 2027-Jan-23 00:00:00.0000, -9.036698806439534E+07, 2.142158928975480E+08, -5.078591972950343E+07,
2461435.500000000, A.D. 2027-Jan-30 00:00:00.0000, -1.024021366320705E+08, 2.052355992165897E+08, -5.647257458505985E+07,
2461442.500000000, A.D. 2027-Feb-06 00:00:00.0000, -1.140601956131682E+08, 1.954998793924240E+08, -6.195124069730514E+07,
2461449.500000000, A.D. 2027-Feb-13 00:00:00.0000, -1.252899133298475E+08, 1.850302552110392E+08, -6.719722133945504E+07,
2461456.500000000, A.D. 2027-Feb-20 00:00:00.0000, -1.360411201617152E+08, 1.738541783271147E+08, -7.218652500723028E+07,
2461463.500000000, A.D. 2027-Feb-27 00:00:00.0000, -1.462654711967109E+08, 1.620049747427126E+08, -7.689622953935201E+07,
2461470.500000000, A.D. 2027-Mar-06 00:00:00.0000, -1.559171915720907E+08, 1.495216437223706E+08, -8.130484478648445E+07,
2461477.500000000, A.D. 2027-Mar-13 00:00:00.0000, -1.649537982718884E+08, 1.364485102967176E+08, -8.539265967184012E+07,
2461484.500000000, A.D. 2027-Mar-20 00:00:00.0000, -1.733367707883231E+08, 1.228347355142010E+08, -8.914205957349637E+07,
2461491.500000000, A.D. 2027-Mar-27 00:00:00.0000, -1.810321429251345E+08, 1.087336969626276E+08, -9.253780086944775E+07,
2461498.500000000, A.D. 2027-Apr-03 00:00:00.0000, -1.880109913474363E+08, 9.420226012982777E+07, -9.556723130278857E+07,
2461505.500000000, A.D. 2027-Apr-10 00:00:00.0000, -1.942498018311836E+08, 7.929996749797650E+07, -9.822044756137329E+07,
2461512.500000000, A.D. 2027-Apr-17 00:00:00.0000, -1.997307008373832E+08, 6.408817655892867E+07, -1.004903848694402E+08,
2461519.500000000, A.D. 2027-Apr-24 00:00:00.0000, -2.044415474085732E+08, 4.862917989653327E+07, -1.023728371267395E+08,
2461526.500000000, A.D. 2027-May-01 00:00:00.0000, -2.083758876762868E+08, 3.298534013618067E+07, -1.038664098417693E+08,
2461533.500000000, A.D. 2027-May-08 00:00:00.0000, -2.115327811617980E+08, 1.721827057320426E+07, -1.049724113778974E+08,
2461540.500000000, A.D. 2027-May-15 00:00:00.0000, -2.139165155754831E+08, 1.388087927572280E+06, -1.056946905422825E+08,
2461547.500000000, A.D. 2027-May-22 00:00:00.0000, -2.155362310399396E+08, -1.444724571711046E+07, -1.060394307195790E+08,
2461554.500000000, A.D. 2027-May-29 00:00:00.0000, -2.164054721521988E+08, -3.023248006703153E+07, -1.060149121205370E+08,
2461561.500000000, A.D. 2027-Jun-05 00:00:00.0000, -2.165416894648065E+08, -4.591552299798910E+07, -1.056312532581226E+08,
2461568.500000000, A.D. 2027-Jun-12 00:00:00.0000, -2.159657140541013E+08, -6.144777494669969E+07, -1.049001421419743E+08,
2461575.500000000, A.D. 2027-Jun-19 00:00:00.0000, -2.147012251956365E+08, -7.678435651161592E+07, -1.038345668395748E+08,
2461582.500000000, A.D. 2027-Jun-26 00:00:00.0000, -2.127742277756605E+08, -9.188423769407398E+07, -1.024485535760966E+08,
2461589.500000000, A.D. 2027-Jul-03 00:00:00.0000, -2.102125529855807E+08, -1.067102796604083E+08, -1.007569188311291E+08,
2461596.500000000, A.D. 2027-Jul-10 00:00:00.0000, -2.070453925925186E+08, -1.212292015033510E+08, -9.877504017661829E+07,
2461603.500000000, A.D. 2027-Jul-17 00:00:00.0000, -2.033028738715750E+08, -1.354114851404204E+08, -9.651864900161773E+07,
2461610.500000000, A.D. 2027-Jul-24 00:00:00.0000, -1.990156792792661E+08, -1.492312313227115E+08, -9.400364686305706E+07,
2461617.500000000, A.D. 2027-Jul-31 00:00:00.0000, -1.942147122352101E+08, -1.626659786464760E+08, -9.124594600956044E+07,
2461624.500000000, A.D. 2027-Aug-07 00:00:00.0000, -1.889308090066638E+08, -1.756964953631931E+08, -8.826133354733151E+07,
2461631.500000000, A.D. 2027-Aug-14 00:00:00.0000, -1.831944972752349E+08, -1.883065537842394E+08, -8.506535793125400E+07,
2461638.500000000, A.D. 2027-Aug-21 00:00:00.0000, -1.770357979675209E+08, -2.004826987009347E+08, -8.167323649904752E+07,
2461645.500000000, A.D. 2027-Aug-28 00:00:00.0000, -1.704840634234866E+08, -2.122140152053861E+08, -7.809978235018294E+07,
2461652.500000000, A.D. 2027-Sep-04 00:00:00.0000, -1.635678492020110E+08, -2.234918986165269E+08, -7.435934818768243E+07,
2461659.500000000, A.D. 2027-Sep-11 00:00:00.0000, -1.563148168936281E+08, -2.343098311345873E+08, -7.046578494354200E+07,
2461666.500000000, A.D. 2027-Sep-18 00:00:00.0000, -1.487516638243971E+08, -2.446631687544550E+08, -6.643241320227174E+07,
2461673.500000000, A.D. 2027-Sep-25 00:00:00.0000, -1.409040756158504E+08, -2.545489404859945E+08, -6.227200551806802E+07,
2461680.500000000, A.D. 2027-Oct-02 00:00:00.0000, -1.327966979913499E+08, -2.639656610790249E+08, -5.799677785674740E+07,
2461687.500000000, A.D. 2027-Oct-09 00:00:00.0000, -1.244531245984041E+08, -2.729131578808633E+08, -5.361838856409493E+07,
2461694.500000000, A.D. 2027-Oct-16 00:00:00.0000, -1.158958979193547E+08, -2.813924120273631E+08, -4.914794344425736E+07,
2461701.500000000, A.D. 2027-Oct-23 00:00:00.0000, -1.071465204830363E+08, -2.894054137535537E+08, -4.459600571881795E+07,
2461708.500000000, A.D. 2027-Oct-30 00:00:00.0000, -9.822547379432118E+07, -2.969550307297990E+08, -3.997260976851556E+07,
2461715.500000000, A.D. 2027-Nov-06 00:00:00.0000, -8.915224423769969E+07, -3.040448876381852E+08, -3.528727754262483E+07,
2461722.500000000, A.D. 2027-Nov-13 00:00:00.0000, -7.994535632068561E+07, -3.106792583064535E+08, -3.054903686076239E+07,
2461729.500000000, A.D. 2027-Nov-20 00:00:00.0000, -7.062240900632580E+07, -3.168629717712377E+08, -2.576644142002173E+07,
2461736.500000000, A.D. 2027-Nov-27 00:00:00.0000, -6.120011240869057E+07, -3.226013284606723E+08, -2.094759188906474E+07,
2461743.500000000, A.D. 2027-Dec-04 00:00:00.0000, -5.169432596571126E+07, -3.279000247234116E+08, -1.610015739607242E+07,
2461750.500000000, A.D. 2027-Dec-11 00:00:00.0000, -4.212009789632098E+07, -3.327650858202804E+08, -1.123139708843423E+07,
2461757.500000000, A.D. 2027-Dec-18 00:00:00.0000, -3.249170506586121E+07, -3.372028069022541E+08, -6.348181539713889E+06,
2461764.500000000, A.D. 2027-Dec-25 00:00:00.0000, -2.282269262912724E+07, -3.412197012059481E+08, -1.457013803140715E+06,
2461771.500000000, A.D. 2028-Jan-01 00:00:00.0000, -1.312591303446821E+07, -3.448224547336705E+08, 3.435950048378706E+06,
$$EOE